ONEWEB-0385             
1 49311U 21090AJ  22054.58334491 -.00032841  00000+0 -33372-2 0  9999
2 49311  87.1941 246.5741 0003584 161.2223 124.5199 14.91105122  3567
ONEWEB-0386             
1 49312U 21090AK  22054.58334491 -.00037068  00000+0 -37648-2 0  9996
2 49312  87.2029 246.7207 0003845 119.4264  62.1768 14.91145581  3556
ONEWEB-0387             
1 49313U 21090AL  22054.58334491 -.00032248  00000+0 -32753-2 0  9994
2 49313  87.2029 246.7149 0002743 151.1730 254.9152 14.91125289  3549
ONEWEB-0388             
1 49314U 21090AM  22054.91667824  .00040244  00000+0  10012+0 0  9995
2 49314  87.9136 257.8328 0001647  84.7330 257.9524 13.19675738 20067
ONEWEB-0389             
1 50469U 21132A   22054.83334491 -.00039124  00000+0 -38593-2 0  9991
2 50469  87.2246 335.5602 0005245  86.0037  60.3344 14.92316490 10100
ONEWEB-0390             
1 50470U 21132B   22054.83334491 -.00033941  00000+0 -33462-2 0  9994
2 50470  87.2286 335.5826 0004697  95.5141 212.9729 14.92315222 10109
ONEWEB-0391             
1 50471U 21132C   22054.83334491 -.00037872  00000+0 -37314-2 0  9992
2 50471  87.2232 335.5445 0004258  97.5101 135.0401 14.92361538 10102
ONEWEB-0392             
1 50472U 21132D   22054.83334491 -.00033532  00000+0 -33079-2 0  9996
2 50472  87.2274 335.5779 0005323  65.3251 326.6513 14.92286702 10103
ONEWEB-0393             
1 50473U 21132E   22054.83334491 -.00033449  00000+0 -33006-2 0  9994
2 50473  87.2256 335.5597 0005177  71.4758 258.9203 14.92276869 10116
ONEWEB-0394             
1 50474U 21132F   22054.83334491 -.00034080  00000+0 -33575-2 0  9998
2 50474  87.2292 335.5990 0005051 105.6625 306.0388 14.92343182 10086
ONEWEB-0395             
1 50475U 21132G   22054.58334491 -.00966799  00000+0 -26297+0 0  9992
2 50475  87.5398 336.9738 0020491  95.1217 204.3627 14.50556811  3556
ONEWEB-0396             
1 50476U 21132H   22054.83334491 -.00039609  00000+0 -39066-2 0  9993
2 50476  87.2327 335.6194 0004944  62.8084 118.3332 14.92325964 10088
ONEWEB-0397             
1 50477U 21132J   22054.83334491 -.00033248  00000+0 -32602-2 0  9996
2 50477  87.2327 335.6196 0005521  95.8994 279.1836 14.92523864 10083
ONEWEB-0398             
1 50478U 21132K   22054.83334491 -.01007551  00000+0 -28779+0 0  9993
2 50478  87.5276 336.9126 0024267  94.6078  77.7593 14.48308934 10032
ONEWEB-0399             
1 50479U 21132L   22054.58334491 -.00950333  00000+0 -28053+0 0  9995
2 50479  87.5068 336.9707 0022395  95.7061  46.4642 14.46590355  3534
ONEWEB-0400             
1 50480U 21132M   22054.83334491 -.00034429  00000+0 -33977-2 0  9998
2 50480  87.2277 335.5659 0004167  81.6844 212.4748 14.92280619 10110
ONEWEB-0401             
1 50481U 21132N   22054.83334491 -.00039723  00000+0 -39218-2 0  9995
2 50481  87.2307 335.5975 0004314 111.2783  64.1971 14.92288810 10090
ONEWEB-0402             
1 50482U 21132P   22054.83334491 -.00034251  00000+0 -33812-2 0  9991
2 50482  87.2306 335.6008 0004565 101.9446 197.2618 14.92264905 10105
ONEWEB-0403             
1 50483U 21132Q   22054.83334491 -.00033172  00000+0 -32634-2 0  9994
2 50483  87.2282 335.5841 0003223  97.1028 267.5097 14.92402631 10107
ONEWEB-0404             
1 50484U 21132R   22054.58334491 -.00951714  00000+0 -27754+0 0  9992
2 50484  87.5148 336.9687 0023920  96.6988 100.7700 14.47149471  3549
ONEWEB-0405             
1 50485U 21132S   22054.83334491 -.00034256  00000+0 -33805-2 0  9991
2 50485  87.3056 335.8237 0004194  54.3052 231.7369 14.92281086 10105
ONEWEB-0406             
1 50486U 21132T   22054.83334491 -.00039284  00000+0 -38724-2 0  9993
2 50486  87.2332 335.6104 0005354  65.0590 133.0515 14.92344677 10099
ONEWEB-0407             
1 50487U 21132U   22054.83334491 -.00036175  00000+0 -35653-2 0  9998
2 50487  87.2247 335.5582 0004841  59.9562  34.1004 14.92338942 10109
ONEWEB-0409             
1 50488U 21132V   22054.58334491 -.00915997  00000+0 -25951+0 0  9996
2 50488  87.5250 336.9665 0023458  98.3015 249.8915 14.48419512  3549
ONEWEB-0412             
1 50489U 21132W   22054.58334491 -.00832885  00000+0 -60837-1 0  9995
2 50489  87.2813 335.6902 0004640  80.3254 136.5226 15.06370387  3593
ONEWEB-0413             
1 50490U 21132X   22054.83334491 -.00033430  00000+0 -32993-2 0  9997
2 50490  87.2230 335.5356 0005241 102.5201 280.9897 14.92268625 10116
ONEWEB-0414             
1 50491U 21132Y   22054.83334491 -.00034572  00000+0 -33937-2 0  9995
2 50491  87.2283 335.5825 0005355  59.5088   4.2007 14.92488499 10108
ONEWEB-0417             
1 50492U 21132Z   22054.83334491 -.00039042  00000+0 -38502-2 0  9996
2 50492  87.2309 335.6044 0005421  69.7275  76.1932 14.92325829 10097
ONEWEB-0418             
1 50493U 21132AA  22054.83334491 -.00033349  00000+0 -32891-2 0  9996
2 50493  87.2343 335.6366 0006452  86.9189 297.5991 14.92289983 10086
ONEWEB-0419             
1 50494U 21132AB  22054.83334491 -.00038356  00000+0 -37593-2 0  9994
2 50494  87.2236 335.5454 0004887  53.1880 169.7215 14.92570926 10101
ONEWEB-0420             
1 50495U 21132AC  22054.83334491 -.00077938  00000+0 -76736-2 0  9996
2 50495  87.2181 335.5021 0004803 108.5697 103.4472 14.92600092 10120
ONEWEB-0421             
1 50496U 21132AD  22054.83334491 -.00038199  00000+0 -37696-2 0  9995
2 50496  87.2200 335.5198 0004371 119.8846   7.0126 14.92299595 10126
ONEWEB-0424             
1 50497U 21132AE  22054.83334491 -.00033316  00000+0 -32846-2 0  9994
2 50497  87.2374 335.6460 0005460  68.8575 316.3243 14.92309297 10097
ONEWEB-0426             
1 50498U 21132AF  22054.83334491 -.00033359  00000+0 -32976-2 0  9996
2 50498  87.2240 335.5539 0003406  78.3738 302.9134 14.92211085 10100
ONEWEB-0427             
1 50499U 21132AG  22054.83334491 -.00037690  00000+0 -37210-2 0  9995
2 50499  87.2183 335.5109 0002974  51.9997 184.4069 14.92283749 10132
ONEWEB-0429             
1 50500U 21132AH  22054.83334491 -.00033463  00000+0 -33073-2 0  9995
2 50500  87.2209 335.5171 0004419 110.3603 271.2772 14.92215138 10114
ONEWEB-0430             
1 50501U 21132AJ  22054.83334491 -.00034448  00000+0 -33992-2 0  9990
2 50501  87.2348 335.6395 0004463  62.7262 227.1972 14.92284000 10080
ONEWEB-0432             
1 50502U 21132AK  22054.83334491 -.00039038  00000+0 -38274-2 0  9999
2 50502  87.2211 335.5250 0005795 103.7129 107.7279 14.92556804 10128
ONEWEB-0440             
1 50503U 21132AL  22054.83334491 -.00034202  00000+0 -33827-2 0  9997
2 50503  87.2231 335.5365 0004452 103.7088 199.0179 14.92190795 10116
ONEWEB-0450             
1 50504U 21132AM  22054.83334491 -.00039377  00000+0 -38835-2 0  9990
2 50504  87.2332 335.6181 0004468  84.4729  72.4919 14.92328719 10092
ONEWEB-0410             
1 51622U 22012A   22054.58334491 -.00001870  00000+0 -63692-4 0  9990
2 51622  87.3998 357.1994 0016863 197.1763 234.2873 15.31032467  2641
ONEWEB-0411             
1 51623U 22012B   22054.83334491  .00013793  00000+0  49865-3 0  9999
2 51623  87.4017 357.1325 0014845 200.4898  37.2094 15.28228270  3268
ONEWEB-0415             
1 51624U 22012C   22054.58334491 -.00001139  00000+0 -42486-4 0  9998
2 51624  87.4013 357.2197 0016152 201.8675 114.8665 15.28521427  3237
ONEWEB-0416             
1 51625U 22012D   22054.58334491 -.00000846  00000+0 -30300-4 0  9995
2 51625  87.4020 357.2080 0014011 200.7733 195.3352 15.30285751  3240
ONEWEB-0422             
1 51626U 22012E   22054.58334491 -.00001122  00000+0 -39085-4 0  9993
2 51626  87.4014 357.2039 0016394 200.3963 220.1047 15.30790551  3242
ONEWEB-0423             
1 51627U 22012F   22054.58334491 -.00001890  00000+0 -64098-4 0  9998
2 51627  87.4028 357.2041 0017131 195.5929 241.3743 15.31151128  3248
ONEWEB-0425             
1 51628U 22012G   22054.58334491 -.00001024  00000+0 -37521-4 0  9999
2 51628  87.4011 357.2164 0016634 192.0393 157.2126 15.29225284  3243
ONEWEB-0428             
1 51629U 22012H   22054.58334491 -.00000977  00000+0 -37243-4 0  9997
2 51629  87.4019 357.2234 0013929 201.4164  93.2090 15.28016325  3236
ONEWEB-0431             
1 51630U 22012J   22054.58334491 -.00001071  00000+0 -39341-4 0  9996
2 51630  87.4032 357.2171 0016951 193.6440 149.3491 15.29082834  3248
ONEWEB-0434             
1 51631U 22012K   22054.58334491 -.00000970  00000+0 -35470-4 0  9993
2 51631  87.4026 357.2162 0015973 188.8571 167.8440 15.29384988  3240
ONEWEB-0435             
1 51632U 22012L   22054.58334491 -.00001201  00000+0 -44625-4 0  9994
2 51632  87.4043 357.2249 0016524 201.1619 119.2514 15.28586162  3230
ONEWEB-0436             
1 51633U 22012M   22054.58334491 -.00002037  00000+0 -67846-4 0  9993
2 51633  87.4024 357.1985 0015916 187.2437 275.6227 15.31720890  3254
ONEWEB-0438             
1 51634U 22012N   22054.83334491  .00015963  00000+0  54487-3 0  9998
2 51634  87.4045 357.1250 0013938 195.8872 129.5153 15.30118853  3280
ONEWEB-0439             
1 51635U 22012P   22054.83334491  .00015626  00000+0  54285-3 0  9991
2 51635  87.4005 357.1219 0015559 188.6793 109.3384 15.29523598  3281
ONEWEB-0442             
1 51636U 22012Q   22054.58334491 -.00001983  00000+0 -65340-4 0  9992
2 51636  87.4007 357.1927 0013982 184.7480 295.9962 15.32113246  3258
ONEWEB-0443             
1 51637U 22012R   22054.58334491 -.00002441  00000+0 -81273-4 0  9996
2 51637  87.4013 357.2001 0016241 188.8054 269.0867 15.31612859  3252
ONEWEB-0444             
1 51638U 22012S   22054.58334491 -.00000957  00000+0 -34020-4 0  9995
2 51638  87.4026 357.2115 0014322 201.5570 198.6672 15.30345086  3241
ONEWEB-0445             
1 51639U 22012T   22054.83334491  .00015713  00000+0  54202-3 0  9991
2 51639  87.4018 357.1233 0014542 189.6350 119.6440 15.29768728  3289
ONEWEB-0446             
1 51640U 22012U   22054.58334491 -.00000900  00000+0 -32190-4 0  9992
2 51640  87.4018 357.2086 0013493 198.3073 196.5085 15.30225981  3247
